NORAD_CAT_ID,OBJECT_NAME,OBJECT_TYPE,EPOCH,MEAN_MOTION,ECCENTRICITY,INCLINATION,RA_OF_ASC_NODE,ARG_OF_PERICENTER,MEAN_ANOMALY,BSTAR,MEAN_MOTION_DOT,MEAN_MOTION_DDOT,TLE_LINE0,TLE_LINE1,TLE_LINE2,SEMIMAJOR_AXIS,PERIOD,APOGEE,PERIGEE,DECAYED
49414.0,STARLINK-3146,PAYLOAD,2021-12-24 14:00:01,15.55434425,0.000114,53.2174,290.6415,61.8141,239.938,-0.0089142,-0.00575811,0.0,0 STARLINK-3146,1 49414U 21104G   21358.58334491 -.00575811  00000-0 -89142-2 0  9991,2 49414  53.2174 290.6415 0001140  61.8141 239.9380 15.55434425  3678,6779.026999999999,92.579,401.665,400.119,0.0
49414.0,STARLINK-3146,PAYLOAD,2021-12-24 20:00:01,15.55143098,0.0001289,53.2176,289.4333,68.8491,193.4538,-0.010369,-0.00655936,0.0,0 STARLINK-3146,1 49414U 21104G   21358.83334491 -.00655936  00000-0 -10369-1 0  9990,2 49414  53.2176 289.4333 0001289  68.8491 193.4538 15.55143098  7782,6779.874,92.596,402.61300000000006,400.865,0.0
49414.0,STARLINK-3146,PAYLOAD,2021-12-24 22:00:00,15.55028024,0.0001162,53.2177,289.0321,62.3785,306.7133,-0.010478,-0.0065968,0.0,0 STARLINK-3146,1 49414U 21104G   21358.91667824 -.00659680  00000-0 -10478-1 0  9999,2 49414  53.2177 289.0321 0001162  62.3785 306.7133 15.55028024  3698,6780.208000000001,92.603,402.861,401.285,0.0
49414.0,STARLINK-3146,PAYLOAD,2021-12-25 12:00:00,15.54210443,0.0001105,53.2174,286.2208,67.59100000000001,328.0462,-0.010765,-0.0065777,0.0,0 STARLINK-3146,1 49414U 21104G   21359.50001157 -.00657770  00000-0 -10765-1 0  9993,2 49414  53.2174 286.2208 0001105  67.5910 328.0462 15.54210443  7886,6782.5859999999975,92.652,405.2,403.701,0.0
49414.0,STARLINK-3146,PAYLOAD,2021-12-25 14:00:01,15.54091633,0.0001222,53.2173,285.819,67.8061,74.3414,-0.010744,-0.00653963,0.0,0 STARLINK-3146,1 49414U 21104G   21359.58334491 -.00653963  00000-0 -10744-1 0  9998,2 49414  53.2173 285.8190 0001222  67.8061  74.3414 15.54091633  3680,6782.931,92.659,405.625,403.968,0.0
49414.0,STARLINK-3146,PAYLOAD,2021-12-25 22:00:00,15.53625933,0.0001347,53.2175,284.2145,66.5387,141.2946,-0.010957,-0.00655528,0.0,0 STARLINK-3146,1 49414U 21104G   21359.91667824 -.00655528  00000-0 -10957-1 0  9999,2 49414  53.2175 284.2145 0001347  66.5387 141.2946 15.53625933  3690,6784.2869999999975,92.686,407.066,405.23800000000006,0.0
49414.0,STARLINK-3146,PAYLOAD,2021-12-26 14:00:01,15.52692277,0.0001075,53.2175,281.008,79.3628,258.1615,-0.011322,-0.00654714,0.0,0 STARLINK-3146,1 49414U 21104G   21360.58334491 -.00654714  00000-0 -11322-1 0  9998,2 49414  53.2175 281.0080 0001075  79.3628 258.1615 15.52692277  3685,6787.005999999999,92.742,409.601,408.142,0.0
49414.0,STARLINK-3146,PAYLOAD,2021-12-26 20:00:01,15.52344002,0.0001255,53.2177,279.8069,68.3073,227.2718,-0.011497,-0.00656373,0.0,0 STARLINK-3146,1 49414U 21104G   21360.83334491 -.00656373  00000-0 -11497-1 0  9992,2 49414  53.2177 279.8069 0001255  68.3073 227.2718 15.52344002  8092,6788.021,92.763,410.73800000000006,409.034,0.0
49414.0,STARLINK-3146,PAYLOAD,2021-12-26 22:00:00,15.52228221,0.0001214,53.2177,279.4074,59.718,341.8093,-0.011593,-0.00658866,0.0,0 STARLINK-3146,1 49414U 21104G   21360.91667824 -.00658866  00000-0 -11593-1 0  9996,2 49414  53.2177 279.4074 0001214  59.7180 341.8093 15.52228221  3685,6788.359,92.77,411.048,409.4,0.0
49414.0,STARLINK-3146,PAYLOAD,2021-12-27 14:00:01,15.51291788,0.0001261,53.2173,276.2072,68.6133,99.2423,-0.011871,-0.00652765,0.0,0 STARLINK-3146,1 49414U 21104G   21361.58334491 -.00652765  00000-0 -11871-1 0  9992,2 49414  53.2173 276.2072 0001261  68.6133  99.2423 15.51291788  3692,6791.09,92.826,413.812,412.099,0.0
49414.0,STARLINK-3146,PAYLOAD,2021-12-27 20:00:01,15.50943046,0.0001363,53.2177,275.0089,56.5587,68.0906,-0.012063,-0.00654904,0.0,0 STARLINK-3146,1 49414U 21104G   21361.83334491 -.00654904  00000-0 -12063-1 0  9991,2 49414  53.2177 275.0089 0001363  56.5587  68.0906 15.50943046  8250,6792.108,92.847,414.899,413.048,0.0
49414.0,STARLINK-3146,PAYLOAD,2021-12-27 22:00:00,15.50826118,0.0001405,53.2176,274.61,61.0827,169.0945,-0.012104,-0.00654428,0.0,0 STARLINK-3146,1 49414U 21104G   21361.91667824 -.00654428  00000-0 -12104-1 0  9996,2 49414  53.2176 274.6100 0001405  61.0827 169.0945 15.50826118  3680,6792.45,92.854,415.269,413.36,0.0
49414.0,STARLINK-3146,PAYLOAD,2021-12-28 14:00:01,15.49891734,0.00011,53.2173,271.4165,72.1072,281.0339,-0.012476,-0.00652516,0.0,0 STARLINK-3146,1 49414U 21104G   21362.58334491 -.00652516  00000-0 -12476-1 0  9999,2 49414  53.2173 271.4165 0001100  72.1072 281.0339 15.49891734  3709,6795.179,92.91,417.792,416.297,0.0
49414.0,STARLINK-3146,PAYLOAD,2021-12-28 20:00:01,15.49544637,0.0001244,53.2176,270.2208,68.0002,240.6724,-0.012715,-0.00656543,0.0,0 STARLINK-3146,1 49414U 21104G   21362.83334491 -.00656543  00000-0 -12715-1 0  9997,2 49414  53.2176 270.2208 0001244  68.0002 240.6724 15.49544637  8401,6796.194,92.931,418.905,417.214,0.0
49414.0,STARLINK-3146,PAYLOAD,2021-12-28 22:00:00,15.4942802,0.000124,53.2175,269.823,57.6409,356.1391,-0.012781,-0.00657172,0.0,0 STARLINK-3146,1 49414U 21104G   21362.91667824 -.00657172  00000-0 -12781-1 0  9997,2 49414  53.2175 269.8230 0001240  57.6409 356.1391 15.49428020  3674,6796.535,92.938,419.24300000000005,417.557,0.0
49414.0,STARLINK-3146,PAYLOAD,2021-12-29 14:00:01,15.48492696,0.0001249,53.2171,266.6358,70.4723,102.9726,-0.013122,-0.00653107,0.0,0 STARLINK-3146,1 49414U 21104G   21363.58335648 -.00653107  00000-0 -13122-1 0  9991,2 49414  53.2171 266.6358 0001249  70.4723 102.9726 15.48492696  3709,6799.272,92.994,421.986,420.288,0.0
49414.0,STARLINK-3146,PAYLOAD,2021-12-29 20:00:01,15.48144117,0.0001348,53.2174,265.4428,59.7411,67.9746,-0.013337,-0.00655527,0.0,0 STARLINK-3146,1 49414U 21104G   21363.83335648 -.00655527  00000-0 -13337-1 0  9995,2 49414  53.2174 265.4428 0001348  59.7411  67.9746 15.48144117  8564,6800.292,93.015,423.074,421.241,0.0
49414.0,STARLINK-3146,PAYLOAD,2021-12-29 22:33:01,15.49006695,3.69e-05,53.2161,264.9588,155.9583,204.1444,-0.005186,-0.00275938,0.0,0 STARLINK-3146,1 49414U 21104G   21363.93960046 -.00275938  00000-0 -51860-2 0  9990,2 49414  53.2161 264.9588 0000369 155.9583 204.1444 15.49006695  7481,6797.768,92.963,419.883,419.382,0.0
49414.0,STARLINK-3146,PAYLOAD,2021-12-30 03:12:00,15.48669079,0.0001291999999999,53.2159,264.0325,100.4677,259.6478,-0.0055519,-0.00291354,0.0,0 STARLINK-3146,1 49414U 21104G   21364.13334034 -.00291354  00000-0 -55519-2 0  9990,2 49414  53.2159 264.0325 0001292 100.4677 259.6478 15.48669079  8600,6798.755999999999,92.983,421.499,419.742,0.0
49414.0,STARLINK-3146,PAYLOAD,2021-12-30 14:00:01,15.47091901,0.0001111,53.2173,261.8653,75.0409,273.534,-0.013746,-0.00651499,0.0,0 STARLINK-3146,1 49414U 21104G   21364.58334491 -.00651499  00000-0 -13746-1 0  9991,2 49414  53.2173 261.8653 0001111  75.0409 273.5340 15.47091901  3672,6803.375,93.078,425.996,424.485,0.0
49414.0,STARLINK-3146,PAYLOAD,2021-12-30 18:42:18,15.47549585,0.0001229,53.2158,260.9489,62.5983,297.5151,-0.0057721,-0.00291267,0.0,0 STARLINK-3146,1 49414U 21104G   21364.77938088 -.00291267  00000-0 -57721-2 0  9999,2 49414  53.2158 260.9489 0001229  62.5983 297.5151 15.47549585  8701,6802.034000000002,93.05,424.735,423.06300000000016,0.0
49414.0,STARLINK-3146,PAYLOAD,2021-12-30 21:48:20,15.47463714,0.0001607,53.2157,260.334,46.3332,313.781,-0.0057758,-0.00290622,0.0,0 STARLINK-3146,1 49414U 21104G   21364.90857009 -.00290622  00000-0 -57758-2 0  9991,2 49414  53.2157 260.3340 0001607  46.3332 313.7810 15.47463714  7631,6802.286,93.055,425.244,423.057,0.0
49414.0,STARLINK-3146,PAYLOAD,2021-12-31 04:00:00,15.46275953,0.0001088,53.2175,259.0893,81.512,276.9273,-0.014147,-0.00651726,0.0,0 STARLINK-3146,1 49414U 21104G   21365.16667824 -.00651726  00000-0 -14147-1 0  9994,2 49414  53.2175 259.0893 0001088  81.5120 276.9273 15.46275953  8761,6805.769,93.127,428.374,426.893,0.0
49414.0,STARLINK-3146,PAYLOAD,2021-12-31 11:46:18,15.4708894,0.0002856,53.216,257.5683,358.1394,1.9604,-0.004169,-0.00209366,0.0,0 STARLINK-3146,1 49414U 21104G   21365.49048930 -.00209366  00000-0 -41690-2 0  9994,2 49414  53.2160 257.5683 0002856 358.1394   1.9604 15.47088940  8814,6803.384,93.078,427.192,423.306,0.0
49414.0,STARLINK-3146,PAYLOAD,2021-12-31 13:19:27,15.46949789,0.0001786,53.216,257.261,357.9744,2.1257,-0.0042548,-0.00212518,0.0,0 STARLINK-3146,1 49414U 21104G   21365.55518303 -.00212518  00000-0 -42548-2 0  9993,2 49414  53.2160 257.2610 0001786 357.9744   2.1257 15.46949789  7731,6803.792,93.086,426.872,424.442,0.0
49414.0,STARLINK-3146,PAYLOAD,2021-12-31 22:38:18,15.46245846,0.0002035,53.2153,255.4206,33.4969,326.6168,-0.0037395,-0.00183036,0.0,0 STARLINK-3146,1 49414U 21104G   21365.94327089 -.00183036  00000-0 -37395-2 0  9991,2 49414  53.2153 255.4206 0002035  33.4969 326.6168 15.46245846  7791,6805.857,93.129,429.107,426.337,0.0
49414.0,STARLINK-3146,PAYLOAD,2022-01-01 14:00:01,15.44292286,0.0001154,53.2173,252.3543,94.6723,229.2175,-0.01513,-0.00651064,0.0,0 STARLINK-3146,1 49414U 21104G   22001.58335648 -.00651064  00000-0 -15130-1 0  9992,2 49414  53.2173 252.3543 0001154  94.6723 229.2175 15.44292286  3678,6811.595,93.247,434.246,432.674,0.0
49414.0,STARLINK-3146,PAYLOAD,2022-01-01 22:00:00,15.43828605,0.0001266,53.2175,250.7747,58.1307,319.6054,-0.01548,-0.00663191,0.0,0 STARLINK-3146,1 49414U 21104G   22001.91667824 -.00663191  00000-0 -15480-1 0  9995,2 49414  53.2175 250.7747 0001266  58.1307 319.6054 15.43828605  3674,6812.959,93.275,435.687,433.962,0.0
49414.0,STARLINK-3146,PAYLOAD,2022-01-02 04:00:00,15.43476576,0.0001139,53.2173,249.5901,84.3677,243.4353,-0.015556,-0.00658818,0.0,0 STARLINK-3146,1 49414U 21104G   22002.16667824 -.00658818  00000-0 -15556-1 0  9997,2 49414  53.2173 249.5901 0001139  84.3677 243.4353 15.43476576  9072,6813.995,93.296,436.636,435.084,0.0
